ONEWEB-0018             
1 45434U 20020L   24253.44202595 -.00000649  00000+0 -18667-2 0  9991
2 45434  87.8984 149.6620 0001728  77.3233 282.8088 13.11417801217998
ONEWEB-0083             
1 45435U 20020M   24253.43186140 -.00000390  00000+0 -11372-2 0  9997
2 45435  87.8983 149.6463 0001820  74.4228 285.7100 13.11417444218034
ONEWEB-0095             
1 45436U 20020N   24253.42352539 -.00000190  00000+0 -57231-3 0  9997
2 45436  87.8979 149.6806 0002506  62.2151 297.9231 13.11417208218031
ONEWEB-0092             
1 45437U 20020P   24253.46661209  .00000399  00000+0  10907-2 0  9996
2 45437  87.8983 149.6548 0002008  64.1151 296.0183 13.11420848218151
ONEWEB-0085             
1 45438U 20020Q   24253.42507647 -.00000258  00000+0 -76479-3 0  9991
2 45438  87.8983 149.6716 0001716  75.7288 284.4030 13.11414027218034
ONEWEB-0096             
1 45439U 20020R   24253.43355506 -.00000399  00000+0 -11611-2 0  9990
2 45439  87.8983 149.6395 0001561  77.3155 282.8147 13.11417579218022
ONEWEB-0037             
1 45440U 20020S   24253.41491391  .00000157  00000+0  40719-3 0  9995
2 45440  87.8975 149.6223 0001808  70.4844 289.6479 13.11414314218058
ONEWEB-0042             
1 45441U 20020T   24253.42324327 -.00000150  00000+0 -46011-3 0  9997
2 45441  87.8979 149.6551 0001725  75.0991 285.0328 13.11414266218025
